[Satellite]
VERSION=1.1
NAME=HELIOS 1B
NICKNAME=HELIOS 1B
TLE1=1 25977U 99064A   22342.49617200  .00000615  00000+0  82825-4 0  9990
TLE2=2 25977  98.3080 183.6749 0000912  20.6265 339.4984 14.82971056509075
STATUS=0
